     2.100          NAVIGATION                              RINEX VERSION / TYPE
fic2rin                                 11/12/2017 00:08:29 PGM / RUN BY / DATE
                                                            END OF HEADER
13 17 11 11 16  0  0.0 -.938381999731D-04 -.454747350886D-12  .000000000000D+00
     .127000000000D+03  .403750000000D+02  .459376277723D-08 -.144518398944D+01
     .204890966415D-05  .359245005529D-02  .724382698536D-05  .515365514374D+04
     .576000000000D+06 -.484287738800D-07  .308858449432D+01  .875443220139D-07
     .969369344341D+00  .242906250000D+03  .168476714975D+01 -.808283668259D-08
     .475019786481D-10  .100000000000D+01  .197400000000D+04  .000000000000D+00
     .240000000000D+01  .000000000000D+00 -.116415321827D-07  .127000000000D+03
     .568806000000D+06  .400000000000D+01
14 17 11 11 16  0  0.0 -.883359462023D-04 -.795807864051D-12  .000000000000D+00
     .124000000000D+03  .411875000000D+02  .481412909923D-08 -.235188959627D+00
     .219233334064D-05  .927168596536D-02  .794604420662D-05  .515370897102D+04
     .576000000000D+06 -.596046447754D-07  .304802123871D+01  .502914190292D-07
     .961889075547D+00  .228906250000D+03 -.194910372514D+01 -.832998983466D-08
     .110004582132D-09  .100000000000D+01  .197400000000D+04  .000000000000D+00
     .240000000000D+01  .000000000000D+00 -.977888703346D-08  .124000000000D+03
     .568806000000D+06  .400000000000D+01
15 17 11 11 16  0  0.0 -.357117038220D-03 -.113686837722D-12  .000000000000D+00
     .500000000000D+02  .427187500000D+02  .550308636849D-08 -.757454782301D+00
     .226870179176D-05  .990307994653D-02  .775232911110D-05  .515363919640D+04
     .576000000000D+06  .182539224625D-06  .289414525823D+01  .163912773132D-06
     .928967520277D+00  .212406250000D+03  .630174316033D+00 -.858464329914D-08
     .127505311108D-09  .100000000000D+01  .197400000000D+04  .000000000000D+00
     .240000000000D+01  .000000000000D+00 -.107102096081D-07  .500000000000D+02
     .568806000000D+06  .400000000000D+01
16 17 11 11 16  0  0.0  .364603474736D-04 -.227373675443D-12  .000000000000D+00
     .430000000000D+02  .212812500000D+02  .365693804043D-08  .943894004060D+00
     .131502747536D-05  .943838292733D-02  .944361090660D-05  .515353865433D+04
     .576000000000D+06 -.987201929092D-07 -.113780584648D+01  .132247805595D-06
     .988482361732D+00  .211687500000D+03  .448639429119D+00 -.776139472182D-08
    -.176793078427D-09  .100000000000D+01  .197400000000D+04  .000000000000D+00
     .240000000000D+01  .000000000000D+00 -.107102096081D-07  .430000000000D+02
     .568806000000D+06  .400000000000D+01
17 17 11 11 16  0  0.0 -.145250000060D-03  .250111042988D-11  .000000000000D+00
     .740000000000D+02  .277812500000D+02  .419696053454D-08  .680628722118D-01
     .136904418468D-05  .121216410771D-01  .577233731747D-05  .515371178818D+04
     .576000000000D+06 -.175088644028D-06 -.121659064571D+00  .117346644402D-06
     .981638171181D+00  .281906250000D+03 -.183299195961D+01 -.822462830307D-08
     .256796410887D-09  .100000000000D+01  .197400000000D+04  .000000000000D+00
     .240000000000D+01  .000000000000D+00 -.111758708954D-07  .740000000000D+02
     .568806000000D+06  .400000000000D+01
18 17 11 11 16  0  0.0  .632568262517D-03  .454747350886D-12  .000000000000D+00
     .930000000000D+02 -.602500000000D+02  .529450625172D-08  .157759106194D+01
    -.331364572048D-05  .181593580637D-01  .107977539301D-04  .515364315033D+04
     .576000000000D+06 -.229105353355D-06  .187312999906D+01 -.443309545517D-06
     .925802317074D+00  .156093750000D+03 -.177269321204D+01 -.842499379195D-08
     .728601777760D-10  .100000000000D+01  .197400000000D+04  .000000000000D+00
     .240000000000D+01  .000000000000D+00 -.111758708954D-07  .930000000000D+02
     .568806000000D+06  .400000000000D+01
19 17 11 11 16  0  0.0 -.476194079965D-03  .216004991671D-11  .000000000000D+00
     .340000000000D+02  .205937500000D+02  .420124642735D-08  .305057419753D+01
     .990927219391D-06  .983945454936D-02  .507757067680D-05  .515368595695D+04
     .576000000000D+06  .838190317154D-07 -.742478470066D-01 -.115483999252D-06
     .979016456674D+00  .290500000000D+03  .109151661686D+01 -.790032908042D-08
     .265368196508D-09  .100000000000D+01  .197400000000D+04  .000000000000D+00
     .240000000000D+01  .000000000000D+00 -.153668224812D-07  .340000000000D+02
     .568806000000D+06  .400000000000D+01
20 17 11 11 16  0  0.0  .492455437779D-03  .113686837722D-11  .000000000000D+00
     .770000000000D+02 -.472812500000D+02  .526414784432D-08 -.956111906722D+00
    -.239349901676D-05  .465096661355D-02  .107623636723D-04  .515375825691D+04
     .576000000000D+06 -.800937414169D-07  .182200826680D+01  .186264514923D-07
     .927187843861D+00  .154000000000D+03  .170944037644D+01 -.842035074141D-08
     .310727228751D-10  .100000000000D+01  .197400000000D+04  .000000000000D+00
     .240000000000D+01  .000000000000D+00 -.838190317154D-08  .770000000000D+02
     .568806000000D+06  .400000000000D+01
21 17 11 11 16  0  0.0 -.463059637696D-03  .352429196937D-11  .000000000000D+00
     .800000000000D+02 -.801875000000D+02  .510985570314D-08  .248813993743D+01
    -.421516597271D-05  .240697533591D-01  .453554093838D-05  .515357125092D+04
     .576000000000D+06  .294297933578D-06  .833232987910D+00 -.115483999252D-06
     .941497798374D+00  .280156250000D+03 -.162596303486D+01 -.811855245601D-08
    -.111790370803D-09  .100000000000D+01  .197400000000D+04  .000000000000D+00
     .240000000000D+01  .000000000000D+00 -.977888703346D-08  .800000000000D+02
     .568806000000D+06  .400000000000D+01
22 17 11 11 16  0  0.0 -.185611192137D-03 -.127329258248D-10  .000000000000D+00
     .510000000000D+02 -.457500000000D+02  .542272587830D-08 -.576213535229D+00
    -.236928462982D-05  .714244146366D-02  .990740954876D-05  .515367825508D+04
     .576000000000D+06 -.102445483208D-06  .187268010201D+01  .558793544769D-08
     .923908382367D+00  .169718750000D+03 -.165671093524D+01 -.855285626079D-08
     .275011455331D-10  .100000000000D+01  .197400000000D+04  .000000000000D+00
     .240000000000D+01  .000000000000D+00 -.176951289177D-07  .510000000000D+02
     .568806000000D+06  .400000000000D+01
23 17 11 11 16  0  0.0 -.218619126827D-03 -.113686837722D-12  .000000000000D+00
     .760000000000D+02  .462187500000D+02  .499413659726D-08 -.129188108810D+01
     .237673521042D-05  .118493776536D-01  .771880149841D-05  .515365090752D+04
     .576000000000D+06  .238418579102D-06  .296014115008D+01  .558793544769D-08
     .944261149684D+00  .218750000000D+03 -.241429515654D+01 -.821962809479D-08
     .161792453591D-09  .100000000000D+01  .197400000000D+04  .000000000000D+00
     .240000000000D+01  .000000000000D+00 -.204890966415D-07  .760000000000D+02
     .568806000000D+06  .400000000000D+01
24 17 11 11 16  0  0.0 -.420915894210D-04 -.454747350886D-12  .000000000000D+00
     .680000000000D+02  .765625000000D+01  .504199573365D-08 -.181952681396D+01
     .406056642532D-06  .624371843878D-02  .626593828201D-05  .515366416359D+04
     .576000000000D+06  .111758708954D-07 -.230162413630D+01 -.670552253723D-07
     .943710456117D+00  .250218750000D+03  .475693151215D+00 -.830713173967D-08
    -.268939773850D-09  .100000000000D+01  .197400000000D+04  .000000000000D+00
     .340000000000D+01  .000000000000D+00  .279396772385D-08  .680000000000D+02
     .568806000000D+06  .400000000000D+01
25 17 11 11 16  0  0.0 -.487844925374D-03 -.625277607469D-11  .000000000000D+00
     .460000000000D+02  .329687500000D+02  .388123309751D-08  .248930381603D+01
     .165589153767D-05  .666986231226D-02  .992417335510D-05  .515373406410D+04
     .576000000000D+06  .558793544769D-08 -.121406000371D+01 -.121071934700D-06
     .975791450842D+00  .194375000000D+03  .810567794762D+00 -.776246619502D-08
    -.928610108910D-10  .100000000000D+01  .197400000000D+04  .000000000000D+00
     .240000000000D+01  .000000000000D+00  .558793544769D-08  .460000000000D+02
     .568806000000D+06  .400000000000D+01
26 17 11 11 16  0  0.0 -.365905463696D-03  .135287336889D-10  .000000000000D+00
     .490000000000D+02  .144062500000D+02  .433732352408D-08  .200104155941D+01
     .832602381706D-06  .219678471331D-02  .962428748608D-05  .515356876755D+04
     .576000000000D+06 -.167638063431D-07 -.123247759373D+01 -.372529029846D-08
     .957452744287D+00  .191562500000D+03 -.848242341613D-01 -.805104964425D-08
    -.174650132022D-09  .100000000000D+01  .197400000000D+04  .000000000000D+00
     .240000000000D+01  .000000000000D+00  .745058059692D-08  .490000000000D+02
     .568806000000D+06  .400000000000D+01
27 17 11 11 16  0  0.0  .346667598933D-03  .363797880709D-11  .000000000000D+00
     .440000000000D+02  .290937500000D+02  .426624913497D-08  .131063796247D+00
     .152736902237D-05  .503201817628D-02  .617280602455D-05  .515367583466D+04
     .576000000000D+06  .316649675369D-07 -.174568517834D+00  .149011611938D-07
     .976456655785D+00  .269500000000D+03  .372056696101D+00 -.816391148825D-08
     .288940606965D-09  .100000000000D+01  .197400000000D+04  .000000000000D+00
     .240000000000D+01  .000000000000D+00  .186264514923D-08  .440000000000D+02
     .568806000000D+06  .400000000000D+01
28 17 11 11 16  0  0.0  .661680474877D-03  .318323145621D-11  .000000000000D+00
     .640000000000D+02  .132187500000D+02  .378230040514D-08  .987599784718D+00
     .562518835068D-06  .199866275070D-01  .921078026295D-05  .515366817093D+04
     .576000000000D+06 -.284984707832D-06 -.113340376652D+01 -.266358256340D-06
     .987312831874D+00  .220843750000D+03 -.155377919556D+01 -.802854870699D-08
    -.117862052285D-09  .100000000000D+01  .197400000000D+04  .000000000000D+00
     .240000000000D+01  .000000000000D+00 -.111758708954D-07  .640000000000D+02
     .568806000000D+06  .400000000000D+01
